CCSDS_OMM_VERS = 2.0
CREATION_DATE  = 
ORIGINATOR     = 

OBJECT_NAME    = H-2A R/B
OBJECT_ID      = 2006-002B
CENTER_NAME    = EARTH
REF_FRAME      = TEME
TIME_SYSTEM    = UTC
MEAN_ELEMENT_THEORY = SGP/SGP4

EPOCH          = 2026-03-20T07:09:16.792992
MEAN_MOTION    = 15.16634784
ECCENTRICITY   = .00521878
INCLINATION    = 98.2431
RA_OF_ASC_NODE = 227.2370
ARG_OF_PERICENTER = 204.6545
MEAN_ANOMALY   = 155.2190

EPHEMERIS_TYPE = 0
CLASSIFICATION_TYPE = U
NORAD_CAT_ID   = 28932
ELEMENT_SET_NO = 999
REV_AT_EPOCH   = 9604
BSTAR          = .38594973E-3
MEAN_MOTION_DOT = .7735E-4
MEAN_MOTION_DDOT = 0

CCSDS_OMM_VERS = 2.0
CREATION_DATE  = 
ORIGINATOR     = 

OBJECT_NAME    = RESURS-DK 1
OBJECT_ID      = 2006-021A
CENTER_NAME    = EARTH
REF_FRAME      = TEME
TIME_SYSTEM    = UTC
MEAN_ELEMENT_THEORY = SGP/SGP4

EPOCH          = 2026-03-19T18:49:34.289760
MEAN_MOTION    = 15.12812447
ECCENTRICITY   = .00008562
INCLINATION    = 69.9337
RA_OF_ASC_NODE = 210.9089
ARG_OF_PERICENTER = 135.2424
MEAN_ANOMALY   = 224.8811

EPHEMERIS_TYPE = 0
CLASSIFICATION_TYPE = U
NORAD_CAT_ID   = 29228
ELEMENT_SET_NO = 999
REV_AT_EPOCH   = 8905
BSTAR          = .14998384E-3
MEAN_MOTION_DOT = .2533E-4
MEAN_MOTION_DDOT = 0

CCSDS_OMM_VERS = 2.0
CREATION_DATE  = 
ORIGINATOR     = 

OBJECT_NAME    = CZ-4B R/B
OBJECT_ID      = 2006-046C
CENTER_NAME    = EARTH
REF_FRAME      = TEME
TIME_SYSTEM    = UTC
MEAN_ELEMENT_THEORY = SGP/SGP4

EPOCH          = 2026-03-20T02:20:14.017344
MEAN_MOTION    = 15.17003198
ECCENTRICITY   = .00320088
INCLINATION    = 97.5569
RA_OF_ASC_NODE = 123.9778
ARG_OF_PERICENTER = 229.5853
MEAN_ANOMALY   = 130.2587

EPHEMERIS_TYPE = 0
CLASSIFICATION_TYPE = U
NORAD_CAT_ID   = 29507
ELEMENT_SET_NO = 999
REV_AT_EPOCH   = 6162
BSTAR          = .19112665E-3
MEAN_MOTION_DOT = .3755E-4
MEAN_MOTION_DDOT = 0

CCSDS_OMM_VERS = 2.0
CREATION_DATE  = 
ORIGINATOR     = 

OBJECT_NAME    = CZ-2C R/B
OBJECT_ID      = 2007-010B
CENTER_NAME    = EARTH
REF_FRAME      = TEME
TIME_SYSTEM    = UTC
MEAN_ELEMENT_THEORY = SGP/SGP4

EPOCH          = 2026-03-20T07:02:31.900992
MEAN_MOTION    = 14.20249848
ECCENTRICITY   = .00578531
INCLINATION    = 98.3988
RA_OF_ASC_NODE = 192.0412
ARG_OF_PERICENTER = 263.1763
MEAN_ANOMALY   = 96.2830

EPHEMERIS_TYPE = 0
CLASSIFICATION_TYPE = U
NORAD_CAT_ID   = 31114
ELEMENT_SET_NO = 999
REV_AT_EPOCH   = 98122
BSTAR          = .68674449E-4
MEAN_MOTION_DOT = .108E-5
MEAN_MOTION_DDOT = 0

CCSDS_OMM_VERS = 2.0
CREATION_DATE  = 
ORIGINATOR     = 

OBJECT_NAME    = COSMO-SKYMED 1
OBJECT_ID      = 2007-023A
CENTER_NAME    = EARTH
REF_FRAME      = TEME
TIME_SYSTEM    = UTC
MEAN_ELEMENT_THEORY = SGP/SGP4

EPOCH          = 2026-03-20T07:05:10.885632
MEAN_MOTION    = 14.96615064
ECCENTRICITY   = .00014015
INCLINATION    = 97.8881
RA_OF_ASC_NODE = 270.4138
ARG_OF_PERICENTER = 87.1538
MEAN_ANOMALY   = 272.9843

EPHEMERIS_TYPE = 0
CLASSIFICATION_TYPE = U
NORAD_CAT_ID   = 31598
ELEMENT_SET_NO = 999
REV_AT_EPOCH   = 1649
BSTAR          = .20166175E-3
MEAN_MOTION_DOT = .2238E-4
MEAN_MOTION_DDOT = 0

CCSDS_OMM_VERS = 2.0
CREATION_DATE  = 
ORIGINATOR     = 

OBJECT_NAME    = COSMOS 2428
OBJECT_ID      = 2007-029A
CENTER_NAME    = EARTH
REF_FRAME      = TEME
TIME_SYSTEM    = UTC
MEAN_ELEMENT_THEORY = SGP/SGP4

EPOCH          = 2026-03-20T07:05:36.487680
MEAN_MOTION    = 14.12947536
ECCENTRICITY   = .00095239
INCLINATION    = 70.9441
RA_OF_ASC_NODE = 181.0837
ARG_OF_PERICENTER = 266.2413
MEAN_ANOMALY   = 93.7619

EPHEMERIS_TYPE = 0
CLASSIFICATION_TYPE = U
NORAD_CAT_ID   = 31792
ELEMENT_SET_NO = 999
REV_AT_EPOCH   = 96559
BSTAR          = .17825355E-4
MEAN_MOTION_DOT = -.15E-6
MEAN_MOTION_DDOT = 0

CCSDS_OMM_VERS = 2.0
CREATION_DATE  = 
ORIGINATOR     = 

OBJECT_NAME    = SL-16 R/B
OBJECT_ID      = 2007-029B
CENTER_NAME    = EARTH
REF_FRAME      = TEME
TIME_SYSTEM    = UTC
MEAN_ELEMENT_THEORY = SGP/SGP4

EPOCH          = 2026-03-20T07:27:40.326624
MEAN_MOTION    = 14.14839371
ECCENTRICITY   = .00023507
INCLINATION    = 70.9756
RA_OF_ASC_NODE = 150.0596
ARG_OF_PERICENTER = 276.5620
MEAN_ANOMALY   = 148.1590

EPHEMERIS_TYPE = 0
CLASSIFICATION_TYPE = U
NORAD_CAT_ID   = 31793
ELEMENT_SET_NO = 999
REV_AT_EPOCH   = 96687
BSTAR          = .20270518E-3
MEAN_MOTION_DOT = .343E-5
MEAN_MOTION_DDOT = 0

CCSDS_OMM_VERS = 2.0
CREATION_DATE  = 
ORIGINATOR     = 

OBJECT_NAME    = KORONAS-FOTON
OBJECT_ID      = 2009-003A
CENTER_NAME    = EARTH
REF_FRAME      = TEME
TIME_SYSTEM    = UTC
MEAN_ELEMENT_THEORY = SGP/SGP4

EPOCH          = 2026-03-20T06:24:38.847456
MEAN_MOTION    = 15.43565140
ECCENTRICITY   = .0011777
INCLINATION    = 82.4267
RA_OF_ASC_NODE = 264.8771
ARG_OF_PERICENTER = 115.2615
MEAN_ANOMALY   = 244.9854

EPHEMERIS_TYPE = 0
CLASSIFICATION_TYPE = U
NORAD_CAT_ID   = 33504
ELEMENT_SET_NO = 999
REV_AT_EPOCH   = 94737
BSTAR          = .21641815E-3
MEAN_MOTION_DOT = .978E-4
MEAN_MOTION_DDOT = 0

CCSDS_OMM_VERS = 2.0
CREATION_DATE  = 
ORIGINATOR     = 

OBJECT_NAME    = CZ-2C R/B
OBJECT_ID      = 2011-030B
CENTER_NAME    = EARTH
REF_FRAME      = TEME
TIME_SYSTEM    = UTC
MEAN_ELEMENT_THEORY = SGP/SGP4

EPOCH          = 2026-03-19T20:54:50.448672
MEAN_MOTION    = 14.81258787
ECCENTRICITY   = .0051566
INCLINATION    = 97.8563
RA_OF_ASC_NODE = 35.9320
ARG_OF_PERICENTER = 318.6211
MEAN_ANOMALY   = 57.6131

EPHEMERIS_TYPE = 0
CLASSIFICATION_TYPE = U
NORAD_CAT_ID   = 37731
ELEMENT_SET_NO = 999
REV_AT_EPOCH   = 79160
BSTAR          = .18114584E-3
MEAN_MOTION_DOT = .1389E-4
MEAN_MOTION_DDOT = 0

CCSDS_OMM_VERS = 2.0
CREATION_DATE  = 
ORIGINATOR     = 

OBJECT_NAME    = H-2A R/B
OBJECT_ID      = 2012-025E
CENTER_NAME    = EARTH
REF_FRAME      = TEME
TIME_SYSTEM    = UTC
MEAN_ELEMENT_THEORY = SGP/SGP4

EPOCH          = 2026-03-19T21:36:48.206880
MEAN_MOTION    = 14.95236073
ECCENTRICITY   = .0043143
INCLINATION    = 98.4745
RA_OF_ASC_NODE = 46.7654
ARG_OF_PERICENTER = 279.7412
MEAN_ANOMALY   = 79.8935

EPHEMERIS_TYPE = 0
CLASSIFICATION_TYPE = U
NORAD_CAT_ID   = 38341
ELEMENT_SET_NO = 999
REV_AT_EPOCH   = 74974
BSTAR          = .2513E-3
MEAN_MOTION_DOT = .2745E-4
MEAN_MOTION_DDOT = 0

CCSDS_OMM_VERS = 2.0
CREATION_DATE  = 
ORIGINATOR     = 

OBJECT_NAME    = SHIJIAN-16 (SJ-16)
OBJECT_ID      = 2013-057A
CENTER_NAME    = EARTH
REF_FRAME      = TEME
TIME_SYSTEM    = UTC
MEAN_ELEMENT_THEORY = SGP/SGP4

EPOCH          = 2026-03-20T06:54:47.268576
MEAN_MOTION    = 14.92388361
ECCENTRICITY   = .00152738
INCLINATION    = 74.9739
RA_OF_ASC_NODE = 165.0264
ARG_OF_PERICENTER = 85.1356
MEAN_ANOMALY   = 275.1576

EPHEMERIS_TYPE = 0
CLASSIFICATION_TYPE = U
NORAD_CAT_ID   = 39358
ELEMENT_SET_NO = 999
REV_AT_EPOCH   = 67308
BSTAR          = .11459385E-3
MEAN_MOTION_DOT = .1146E-4
MEAN_MOTION_DDOT = 0

CCSDS_OMM_VERS = 2.0
CREATION_DATE  = 
ORIGINATOR     = 

OBJECT_NAME    = SL-4 R/B
OBJECT_ID      = 2014-021B
CENTER_NAME    = EARTH
REF_FRAME      = TEME
TIME_SYSTEM    = UTC
MEAN_ELEMENT_THEORY = SGP/SGP4

EPOCH          = 2026-03-20T06:36:57.378240
MEAN_MOTION    = 15.39505994
ECCENTRICITY   = .00966798
INCLINATION    = 51.6054
RA_OF_ASC_NODE = 285.6209
ARG_OF_PERICENTER = 141.5209
MEAN_ANOMALY   = 219.2721

EPHEMERIS_TYPE = 0
CLASSIFICATION_TYPE = U
NORAD_CAT_ID   = 39679
ELEMENT_SET_NO = 999
REV_AT_EPOCH   = 65790
BSTAR          = .22634397E-3
MEAN_MOTION_DOT = .10184E-3
MEAN_MOTION_DDOT = 0

